NORAD_CAT_ID,OBJECT_NAME,OBJECT_TYPE,EPOCH,MEAN_MOTION,ECCENTRICITY,INCLINATION,RA_OF_ASC_NODE,ARG_OF_PERICENTER,MEAN_ANOMALY,BSTAR,MEAN_MOTION_DOT,MEAN_MOTION_DDOT,TLE_LINE0,TLE_LINE1,TLE_LINE2,SEMIMAJOR_AXIS,PERIOD,APOGEE,PERIGEE,DECAYED
55964.0,STARLINK-5895,PAYLOAD,2023-08-25 02:19:10,15.69926205,0.0004056,69.9971,90.2907,260.8788,99.1949,5.7597e-06,4.8e-06,0.0,0 STARLINK-5895,1 55964U 23037BC  23237.09665252  .00000480  00000-0  57597-5 0  9996,2 55964  69.9971  90.2907 0004056 260.8788  99.1949 15.69926205 25354,6737.245,91.724,361.843,356.377,0.0
55964.0,STARLINK-5895,PAYLOAD,2023-08-25 17:36:42,15.69915954,0.0003557,69.9972,88.4997,270.756,89.3228,1.7245e-05,1.86e-05,0.0,0 STARLINK-5895,1 55964U 23037BC  23237.73382529  .00001860  00000-0  17245-4 0  9998,2 55964  69.9972  88.4997 0003557 270.7560  89.3228 15.69915954 25794,6737.274,91.725,361.536,356.743,0.0
55964.0,STARLINK-5895,PAYLOAD,2023-08-26 01:15:28,15.6991649,0.000334,69.9968,87.6023,273.4908,86.5905,4.2572e-06,2.99e-06,0.0,0 STARLINK-5895,1 55964U 23037BC  23238.05241259  .00000299  00000-0  42572-5 0  9995,2 55964  69.9968  87.6023 0003340 273.4908  86.5905 15.69916490 25502,6737.273,91.725,361.388,356.888,0.0
55964.0,STARLINK-5895,PAYLOAD,2023-08-26 16:32:59,15.69926761,0.000324,69.997,85.8123,275.7725,84.3101,8.1147e-06,7.63e-06,0.0,0 STARLINK-5895,1 55964U 23037BC  23238.68957441  .00000763  00000-0  81147-5 0  9998,2 55964  69.9970  85.8123 0003240 275.7725  84.3101 15.69926761 25604,6737.244,91.724,361.291,356.926,0.0
55964.0,STARLINK-5895,PAYLOAD,2023-08-27 00:11:46,15.69907625,0.0002843,69.997,84.9166,282.7094,77.3783,-1.4229e-05,-1.922e-05,0.0,0 STARLINK-5895,1 55964U 23037BC  23239.00817331 -.00001922  00000-0 -14229-4 0  9994,2 55964  69.9970  84.9166 0002843 282.7094  77.3783 15.69907625 25994,6737.298,91.725,361.079,357.248,0.0
55964.0,STARLINK-5895,PAYLOAD,2023-08-27 17:01:02,15.69904613,0.0002605,69.9975,82.9452,248.1163,111.9755,-7.4837e-06,-1.111e-05,0.0,0 STARLINK-5895,1 55964U 23037BC  23239.70905500 -.00001111  00000-0 -74837-5 0  9999,2 55964  69.9975  82.9452 0002605 248.1163 111.9755 15.69904613 26106,6737.307,91.725,360.927,357.417,0.0
55964.0,STARLINK-5895,PAYLOAD,2023-08-28 02:11:32,15.69916874,0.0003046,69.9971,81.8702,266.6866,93.3981,6.4727e-06,5.65e-06,0.0,0 STARLINK-5895,1 55964U 23037BC  23240.09134856  .00000565  00000-0  64727-5 0  9998,2 55964  69.9971  81.8702 0003046 266.6866  93.3981 15.69916874 26165,6737.272,91.725,361.189,357.085,0.0
55964.0,STARLINK-5895,PAYLOAD,2023-08-28 06:46:47,15.69923441,0.0003322,69.9965,81.3309,274.1241,85.9574,1.0404e-05,1.038e-05,0.0,0 STARLINK-5895,1 55964U 23037BC  23240.28249434  .00001038  00000-0  10404-4 0  9996,2 55964  69.9965  81.3309 0003322 274.1241  85.9574 15.69923441 26190,6737.253,91.724,361.356,356.88,0.0
55964.0,STARLINK-5895,PAYLOAD,2023-08-28 15:57:17,15.69936169,0.0003097,69.9969,80.2574,265.1494,94.9348,6.7902e-06,6.04e-06,0.0,0 STARLINK-5895,1 55964U 23037BC  23240.66478702  .00000604  00000-0  67902-5 0  9994,2 55964  69.9969  80.2574 0003097 265.1494  94.9348 15.69936169 26252,6737.217,91.723,361.168,356.995,0.0
55964.0,STARLINK-5895,PAYLOAD,2023-08-29 01:07:49,15.69924686,0.0003176,69.9972,79.1826,268.3222,91.761,-6.324e-06,-9.73e-06,0.0,0 STARLINK-5895,1 55964U 23037BC  23241.04709691 -.00000973  00000-0 -63240-5 0  9993,2 55964  69.9972  79.1826 0003176 268.3222  91.7610 15.69924686 26310,6737.249,91.724,361.254,356.975,0.0
55964.0,STARLINK-5895,PAYLOAD,2023-08-29 16:25:20,15.69936318,0.0002877,69.9973,77.3908,264.7334,95.3534,-1.7133e-05,-2.273e-05,0.0,0 STARLINK-5895,1 55964U 23037BC  23241.68426096 -.00002273  00000-0 -17133-4 0  9992,2 55964  69.9973  77.3908 0002877 264.7334  95.3534 15.69936318 26076,6737.216,91.723,361.019,357.143,0.0
55964.0,STARLINK-5895,PAYLOAD,2023-08-29 22:32:25,15.69867136,0.0002726,69.9976,76.6746,273.8689,86.2195,-5.3157e-05,-6.583e-05,0.0,0 STARLINK-5895,1 55964U 23037BC  23241.93918238 -.00006583  00000-0 -53157-4 0  9998,2 55964  69.9976  76.6746 0002726 273.8689  86.2195 15.69867136 26453,6737.414,91.728,361.116,357.443,0.0
55964.0,STARLINK-5895,PAYLOAD,2023-08-30 16:54:43,15.69019848,0.0002498,69.9981,74.5291,214.854,145.2492,-0.00094249,-0.00107976,0.0,0 STARLINK-5895,1 55964U 23037BC  23242.70466789 -.00107976  00000-0 -94249-3 0  9997,2 55964  69.9981  74.5291 0002498 214.8540 145.2492 15.69019848 26576,6739.839,91.777,363.388,360.021,0.0
55964.0,STARLINK-5895,PAYLOAD,2023-08-30 21:31:06,15.682263,0.0005762,69.9979,73.9955,324.9396,35.1419,-0.0018099,-0.00198586,0.0,0 STARLINK-5895,1 55964U 23037BC  23242.89660504 -.00198586  00000-0 -18099-2 0  9993,2 55964  69.9979  73.9955 0005762 324.9396  35.1419 15.68226300 26266,6742.113,91.823,367.863,360.093,0.0
55964.0,STARLINK-5895,PAYLOAD,2023-08-31 04:00:01,15.67097128,0.0003703,69.9984,73.2301,276.5151,172.8975,-0.0098587,-0.009586,0.0,0 STARLINK-5895,1 55964U 23037BC  23243.16668981 -.00958600  00000-0 -98587-2 0  9992,2 55964  69.9984  73.2301 0003703 276.5151 172.8975 15.67097128 26645,6745.351,91.89,369.714,364.718,0.0
55964.0,STARLINK-5895,PAYLOAD,2023-08-31 14:00:01,15.66387585,0.0003615,69.9994,72.0626,269.6749,9.823,-0.012118,-0.01143222,0.0,0 STARLINK-5895,1 55964U 23037BC  23243.58334491 -.01143222  00000-0 -12118-1 0  9996,2 55964  69.9994  72.0626 0003615 269.6749   9.8230 15.66387585 26710,6747.388,91.931,371.692,366.814,0.0
55964.0,STARLINK-5895,PAYLOAD,2023-08-31 22:00:01,15.65544595,0.0003795,69.9989,71.1311,277.1986,80.9555,-0.0093662,-0.00851479,0.0,0 STARLINK-5895,1 55964U 23037BC  23243.91668981 -.00851479  00000-0 -93662-2 0  9990,2 55964  69.9989  71.1311 0003795 277.1986  80.9555 15.65544595 26761,6749.81,91.981,374.237,369.113,0.0
55964.0,STARLINK-5895,PAYLOAD,2023-09-01 04:00:00,15.66397616,0.0003638,69.9987,70.431,271.1229,57.0546,0.00014318,0.00014737,0.0,0 STARLINK-5895,1 55964U 23037BC  23244.16667824  .00014737  00000-0  14318-3 0  9991,2 55964  69.9987  70.4310 0003638 271.1229  57.0546 15.66397616 26801,6747.359,91.931,371.679,366.77,0.0
55964.0,STARLINK-5895,PAYLOAD,2023-09-01 14:00:01,15.65450547,0.000413,69.9994,69.2656,269.5705,246.9692,-0.017999,-0.01603371,0.0,0 STARLINK-5895,1 55964U 23037BC  23244.58334491 -.01603371  00000-0 -17999-1 0  9995,2 55964  69.9994  69.2656 0004130 269.5705 246.9692 15.65450547 26865,6750.08,91.986,374.733,369.158,0.0
55964.0,STARLINK-5895,PAYLOAD,2023-09-01 22:00:00,15.64261795,0.0004243,69.9991,68.3363,272.6465,321.1585,-0.018077,-0.01542889,0.0,0 STARLINK-5895,1 55964U 23037BC  23244.91667824 -.01542889  00000-0 -18077-1 0  9995,2 55964  69.9991  68.3363 0004243 272.6465 321.1585 15.64261795  6016,6753.5,92.056,378.23,372.499,0.0
55964.0,STARLINK-5895,PAYLOAD,2023-09-02 04:00:00,15.65773481,0.0004031,69.9991,67.6354,275.8226,287.9894,5.7582e-05,5.653e-05,0.0,0 STARLINK-5895,1 55964U 23037BC  23245.16667824  .00005653  00000-0  57582-4 0  9990,2 55964  69.9991  67.6354 0004031 275.8226 287.9894 15.65773481 26951,6749.152,91.967,373.738,368.297,0.0
55964.0,STARLINK-5895,PAYLOAD,2023-09-02 14:00:01,15.65891471,0.0003872,69.9996,66.4715,272.0791,119.6385,-0.0042797,-0.00415857,0.0,0 STARLINK-5895,1 55964U 23037BC  23245.58334491 -.00415857  00000-0 -42797-2 0  9990,2 55964  69.9996  66.4715 0003872 272.0791 119.6385 15.65891471 27027,6748.813,91.96,373.291,368.065,0.0
55964.0,STARLINK-5895,PAYLOAD,2023-09-02 22:00:00,15.65576116,0.0003966,69.9997,65.5399,277.0721,192.9886,-0.0060253,-0.00567709,0.0,0 STARLINK-5895,1 55964U 23037BC  23245.91667824 -.00567709  00000-0 -60253-2 0  9997,2 55964  69.9997  65.5399 0003966 277.0721 192.9886 15.65576116 27079,6749.719,91.979,374.261,368.907,0.0
55964.0,STARLINK-5895,PAYLOAD,2023-09-03 14:00:01,15.64763536,0.0003657,69.9997,63.6788,269.8425,355.4591,-0.0072084,-0.00650855,0.0,0 STARLINK-5895,1 55964U 23037BC  23246.58334491 -.00650855  00000-0 -72084-2 0  9992,2 55964  69.9997  63.6788 0003657 269.8425 355.4591 15.64763536 27181,6752.056,92.027,376.39,371.452,0.0
55964.0,STARLINK-5895,PAYLOAD,2023-09-04 14:00:01,15.63456901,0.0003698,70.0003,60.8916,272.7732,221.5164,-0.0075821,-0.00650129,0.0,0 STARLINK-5895,1 55964U 23037BC  23247.58334491 -.00650129  00000-0 -75821-2 0  9999,2 55964  70.0003  60.8916 0003698 272.7732 221.5164 15.63456901 27333,6755.817,92.104,380.181,375.184,0.0
55964.0,STARLINK-5895,PAYLOAD,2023-09-05 14:00:01,15.62154867,0.0003801,70.0001,58.1099,272.8316,85.7497,-0.0080927,-0.00658728,0.0,0 STARLINK-5895,1 55964U 23037BC  23248.58334491 -.00658728  00000-0 -80927-2 0  9996,2 55964  70.0001  58.1099 0003801 272.8316  85.7497 15.62154867 27499,6759.571,92.18,384.005,378.866,0.0
55964.0,STARLINK-5895,PAYLOAD,2023-09-06 06:00:00,15.61228921,0.0003545,70.0,56.2583,275.0065,230.5191,-0.0073117,-0.00579648,0.0,0 STARLINK-5895,1 55964U 23037BC  23249.25001157 -.00579648  00000-0 -73117-2 0  9997,2 55964  70.0000  56.2583 0003545 275.0065 230.5191 15.61228921 27590,6762.243,92.235,386.505,381.711,0.0
55964.0,STARLINK-5895,PAYLOAD,2023-09-06 14:00:01,15.60730422,0.0003382,70.0005,55.3337,270.2478,308.141,-0.0082061,-0.00633905,0.0,0 STARLINK-5895,1 55964U 23037BC  23249.58334491 -.00633905  00000-0 -82061-2 0  9998,2 55964  70.0005  55.3337 0003382 270.2478 308.1410 15.60730422 27641,6763.683,92.264,387.835,383.261,0.0
55964.0,STARLINK-5895,PAYLOAD,2023-09-06 22:00:00,15.60257584,0.000381,70.0,54.4088,275.9812,14.59,-0.0074961,-0.00572972,0.0,0 STARLINK-5895,1 55964U 23037BC  23249.91667824 -.00572972  00000-0 -74961-2 0  9990,2 55964  70.0000  54.4088 0003810 275.9812  14.5900 15.60257584 27701,6765.049,92.292,389.492,384.337,0.0
55964.0,STARLINK-5895,PAYLOAD,2023-09-07 14:00:01,15.59491674,0.0003178,70.0002,52.5622,272.7284,160.3854,-0.0079155,-0.00586468,0.0,0 STARLINK-5895,1 55964U 23037BC  23250.58334491 -.00586468  00000-0 -79155-2 0  9991,2 55964  70.0002  52.5622 0003178 272.7284 160.3854 15.59491674 27808,6767.264,92.338,391.28,386.979,0.0
